YAOGAN-30 06C           
1 44451U 19045C   26068.85043463  .00004352  00000+0  32596-3 0  9993
2 44451  34.9925 214.7382 0001081 261.6749  98.3837 15.02172666361604
STARLINK-6219           
1 56892U 23083S   26068.36161319 -.00000711  00000+0 -37534-4 0  9994
2 56892  43.0042  83.3325 0001198 266.4693  93.6012 15.02536913151625
